FLOCK 2P-4              
1 41611U 16040N   17288.43352168  .00004232  00000-0  18275-3 0  9999
2 41611  97.4497 350.3195 0011641  31.0030 329.1891 15.22993289 72968
FLOCK 2P-10             
1 41612U 16040P   17288.47724034  .00004388  00000-0  18940-3 0  9990
2 41612  97.4505 350.4432 0011398  30.8715 329.3190 15.22993778 72978
FLOCK 2P-8              
1 41613U 16040Q   17288.49368475  .00003039  00000-0  13213-3 0  9996
2 41613  97.4498 350.3974 0011513  30.0626 330.1270 15.22984996 72973
FLOCK 2P-12             
1 41614U 16040R   17288.45533041  .00005752  00000-0  24729-3 0  9994
2 41614  97.4510 350.5101 0011252  30.7673 329.4221 15.22993662 72979
FLOCK 2P-7              
1 41615U 16040S   17288.48805188  .00002237  00000-0  98035-4 0  9999
2 41615  97.4495 350.3882 0011317  30.6545 329.5351 15.23007135 72972
FLOCK 2P-5              
1 41616U 16040T   17288.40067376  .00007054  00000-0  30238-3 0  9993
2 41616  97.4511 350.4296 0011218  30.1898 329.9983 15.23007414 72940
FLOCK 2P-1              
1 41617U 16040U   17288.38893974  .00007444  00000-0  31893-3 0  9993
2 41617  97.4514 350.4483 0010929  30.9472 329.2406 15.23010513 72965
FLOCK 2P-3              
1 41618U 16040V   17288.48270038  .00004072  00000-0  17595-3 0  9992
2 41618  97.4511 350.4671 0011120  30.6266 329.5617 15.23001658 72972
BEESAT-4                
1 41619U 16040W   17288.12644800  .00003467  00000-0  15799-3 0  9997
2 41619  97.4500 349.3028 0012146  16.9608 343.2031 15.21270503 60829
3CAT-2                  
1 41732U 16051B   17288.52319853  .00003086  00000-0  12510-3 0  9991
2 41732  97.3722 203.7219 0012748 202.0777 264.3177 15.25322609 64870
FLOCK 2E'-13            
1 41761U 98067KH  17288.24233333  .00016405  00000-0  17736-3 0  9991
2 41761  51.6365 145.1357 0005156 357.1361   2.9603 15.63747652 61672
FLOCK 2E'-14            
1 41762U 98067KJ  17288.01620236  .00022984  00000-0  24223-3 0  9997
2 41762  51.6376 145.9128 0004579 357.2141   2.8827 15.64143461 61647
FLOCK 2E'-16            
1 41763U 98067KK  17288.07526148  .00024545  00000-0  25158-3 0  9994
2 41763  51.6378 144.8041 0004077  12.7456 347.3642 15.64810203 61622
FLOCK 2E'-15            
1 41764U 98067KL  17288.00594863  .00020962  00000-0  22623-3 0  9990
2 41764  51.6375 146.5881 0004758   5.0573 355.0469 15.63598514 61598
FLOCK 2E'-18            
1 41769U 98067KM  17288.24357009  .00016504  00000-0  17900-3 0  9999
2 41769  51.6374 145.1679 0004034  34.7588 325.3669 15.63664337 61638
FLOCK 2E'-17            
1 41776U 98067KN  17287.97315279  .00022173  00000-0  23661-3 0  9999
2 41776  51.6383 146.3915 0004300  33.7241 326.4026 15.63851117 61580
FLOCK 2E'-19            
1 41777U 98067KP  17287.98812512  .00030112  00000-0  27403-3 0  9993
2 41777  51.6355 141.1641 0002825  37.6604 322.4590 15.67667577 61610
FLOCK 2E'-20            
1 41782U 98067KQ  17288.37219907  .00031099  00000-0  29495-3 0  9990
2 41782  51.6405 140.7985 0001388 143.3953 213.9218 15.66626726 61513
CANX-7                  
1 41788U 16059F   17287.98816223  .00010362  00000-0  18776-2 0  9996
2 41788  98.1866 349.1504 0036218 153.5265 206.8145 14.66049596 56132
ALSAT 1N                
1 41789U 16059G   17288.43433157  .00000390  00000-0  83075-4 0  9995
2 41789  98.1529 349.2145 0029587 135.1339 225.2254 14.64088214 56202
RAVAN                   
1 41849U 16067B   17288.19677371  .00001256  00000-0  11366-3 0  9997
2 41849  97.9426   8.2240 0007122 258.6114 101.4307 14.97276893 50467
CELTEE 1                
1 41850U 16067C   17288.20936562  .00000038  00000-0  86339-5 0  9992
2 41850  97.9410   8.0424 0007672 257.9201 102.1161 14.96649327 50453
OPTICUBE 04             
1 41851U 16067D   17288.22128925  .00000288  00000-0  30658-4 0  9990
2 41851  97.9406   8.0247 0007738 258.1516 101.8837 14.96551367 50459
AEROCUBE 8D             
1 41852U 16067E   17288.29093308  .00000623  00000-0  60459-4 0  9999
2 41852  97.9419   7.9778 0008482 257.0739 102.9534 14.96303687 50459
AEROCUBE 8C             
1 41853U 16067F   17288.16546990  .00000932  00000-0  87860-4 0  9994
2 41853  97.9421   7.8293 0008697 258.5258 101.4986 14.96268548 50433
PROMETHEUS 2-1          
1 41854U 16067G   17288.44938447  .00001201  00000-0  11168-3 0  9995
2 41854  97.9431   8.0873 0008888 257.9596 102.0629 14.96280815 50478
PROMETHEUS 2-3          
1 41855U 16067H   17288.45138243  .00001115  00000-0  10404-3 0  9999
2 41855  97.9433   8.0893 0009060 258.5376 101.4827 14.96274730 50471
LEMUR-2-XIAOQING        
1 41871U 16062C   17288.43935280  .00004981  00000-0  22264-3 0  9997
2 41871  51.6367 235.5654 0004660 311.5232 140.9762 15.23022254 49260
LEMUR-2-SOKOLSKY        
1 41872U 16062D   17288.36711008  .00005455  00000-0  24165-3 0  9999
2 41872  51.6691 235.7204 0004571 323.8365 179.8093 15.23138875 49241
LEMUR-2-ANUBHAVTHAKUR   
1 41873U 16062E   17288.37136541  .00003342  00000-0  15917-3 0  9992
2 41873  51.6439 237.1097 0004876 322.6467 178.6726 15.21877712 49211
LEMUR-2-WINGO           
1 41874U 16062F   17288.35239418  .00005170  00000-0  23292-3 0  9994
2 41874  51.6352 236.2295 0004735 288.1707 208.2497 15.22670710 49230
STARS-C                 
1 41895U 98067KR  17288.18802352  .00068103  00000-0  53212-3 0  9996
2 41895  51.6343 145.5074 0002018 106.5398 253.5821 15.71000672 46780
TANCREDO-1              
1 41931U 98067KT  17288.45819766  .02169753  51232-2  18428-2 0  9993
2 41931  51.6189 129.8322 0009907 269.8830  90.1050 16.14007068 42585
ITF-2                   
1 41932U 98067KU  17287.99253039  .00031222  00000-0  33402-3 0  9999
2 41932  51.6389 151.7739 0003381   4.9959 355.1069 15.63582087 42254
WASEDA-SAT3             
1 41933U 98067KV  17288.48031815  .00031307  00000-0  31760-3 0  9990
2 41933  51.6369 148.2448 0002961   9.0390 351.0658 15.64932417 42345
AOBA-VELOX 3            
1 41935U 98067KX  17288.07176221  .00034661  00000-0  35803-3 0  9996
2 41935  51.6385 150.7932 0002694  11.4418 348.6638 15.64423128 42379
OSNSAT                  
1 41939U 98067KZ  17287.96865691  .00114213  00000-0  73138-3 0  9998
2 41939  51.6347 143.2676 0001216 329.0030  31.0897 15.75444732 41713
FLOCK 3P-8              
1 41951U 17008D   17287.83282312  .00002891  00000-0  12479-3 0  9996
2 41951  97.4834 348.7896 0009822 127.6774 232.5355 15.23294524 36738
FLOCK 3P-51             
1 41952U 17008E   17287.67182532  .00007859  00000-0  33378-3 0  9992
2 41952  97.4841 348.7173 0009476 144.0934 216.0941 15.23303177 36723
FLOCK 3P-37             
1 41953U 17008F   17287.68246783  .00006364  00000-0  26748-3 0  9996
2 41953  97.4840 348.8476 0008636 148.0424 212.1338 15.23743468 36734
INS-1B                  
1 41954U 17008G   17287.66940653  .00003436  00000-0  15249-3 0  9993
2 41954  97.4811 348.3278 0011004 128.7372 231.4849 15.22202224 36648
FLOCK 3P-19             
1 41955U 17008H   17288.11089527  .00009235  00000-0  39112-3 0  9997
2 41955  97.4831 349.0181 0010676 127.0668 233.1546 15.23336222 36703
FLOCK 3P-24             
1 41956U 17008J   17287.64792067  .00008017  00000-0  33996-3 0  9996
2 41956  97.4830 348.5630 0010527 126.3011 233.9199 15.23340669 36718
FLOCK 3P-18             
1 41957U 17008K   17287.64858573  .00006693  00000-0  28435-3 0  9992
2 41957  97.4828 348.5658 0010575 127.6282 232.5916 15.23341670 36550
FLOCK 3P-22             
1 41958U 17008L   17288.50890084  .00002489  00000-0  10775-3 0  9999
2 41958  97.4830 349.4109 0010399 125.2381 234.9831 15.23327938 36679
FLOCK 3P-21             
1 41959U 17008M   17287.64377985  .00006890  00000-0  29325-3 0  9995
2 41959  97.4837 348.5884 0010186 129.3746 230.8394 15.23274479 36558
FLOCK 3P-28             
1 41960U 17008N   17288.16757268  .00003118  00000-0  13438-3 0  9999
2 41960  97.4834 349.1093 0010133 126.1363 234.0813 15.23288544 36716
FLOCK 3P-26             
1 41961U 17008P   17288.17608793  .00008068  00000-0  34208-3 0  9996
2 41961  97.4835 349.0954 0010362 125.4153 234.8053 15.23344541 36631
FLOCK 3P-17             
1 41962U 17008Q   17288.22278603  .00002627  00000-0  11375-3 0  9991
2 41962  97.4833 349.1874 0010120 127.7980 232.4174 15.23274179 36599
FLOCK 3P-27             
1 41963U 17008R   17287.85638044  .00005491  00000-0  23406-3 0  9999
2 41963  97.4834 348.7590 0010511 127.0214 233.1986 15.23311441 36580
FLOCK 3P-25             
1 41964U 17008S   17288.17020716  .00007825  00000-0  33235-3 0  9991
2 41964  97.4834 349.0994 0010119 126.0889 234.1286 15.23298897 36611
FLOCK 3P-4              
1 41965U 17008T   17287.77039584  .00002922  00000-0  12615-3 0  9992
2 41965  97.4834 348.7224 0009992 128.4299 231.7836 15.23282177 36654
FLOCK 3P-2              
1 41966U 17008U   17287.77135516  .00003144  00000-0  13546-3 0  9996
2 41966  97.4836 348.7262 0009910 126.9073 233.3073 15.23291937 36578
FLOCK 3P-1              
1 41967U 17008V   17287.85564958  .00006359  00000-0  27262-3 0  9993
2 41967  97.4840 348.7717 0010018 128.4820 231.7317 15.23057367 36588
FLOCK 3P-3              
1 41968U 17008W   17287.64277629  .00002919  00000-0  12605-3 0  9990
2 41968  97.4833 348.5847 0009992 127.7004 232.5140 15.23276618 36639
FLOCK 3P-6              
1 41969U 17008X   17287.76883142  .00006073  00000-0  25869-3 0  9998
2 41969  97.4838 348.7302 0009817 126.8522 233.3616 15.23298540 36561
FLOCK 3P-7              
1 41970U 17008Y   17288.14474206  .00004807  00000-0  20539-3 0  9992
2 41970  97.4838 349.1488 0009858 128.4131 231.7992 15.23305654 36623
FLOCK 3P-5              
1 41971U 17008Z   17287.83159724  .00002865  00000-0  12381-3 0  9991
2 41971  97.4839 348.8057 0009829 129.2690 230.9420 15.23267408 36519
FLOCK 3P-12             
1 41972U 17008AA  17288.22438707  .00006207  00000-0  26450-3 0  9993
2 41972  97.4839 349.1986 0009677 128.1737 232.0373 15.23279700 36727
